OBJECT_NAME,OBJECT_ID,EPOCH,MEAN_MOTION,ECCENTRICITY,INCLINATION,RA_OF_ASC_NODE,ARG_OF_PERICENTER,MEAN_ANOMALY,EPHEMERIS_TYPE,CLASSIFICATION_TYPE,NORAD_CAT_ID,ELEMENT_SET_NO,REV_AT_EPOCH,BSTAR,MEAN_MOTION_DOT,MEAN_MOTION_DDOT
STARLINK-37151,2026-055AE,2026-07-06T05:50:25.125504,15.34335271,.00012547,53.1575,126.3547,115.5417,244.5715,0,U,68290,999,1811,.40167455E-3,.13191E-3,0
STRIX-6,2026-056A,2026-07-06T09:03:29.194272,15.00301937,.00165538,50.2819,259.0748,317.4088,42.5577,0,U,68291,999,1615,.25949281E-3,.3033E-4,0
STARLINK-37107,2026-057A,2026-07-06T15:55:04.751616,15.33415084,.0002036,97.2861,314.1693,85.8863,274.2612,0,U,68294,999,1689,.66363E-3,.21391E-3,0
STARLINK-37147,2026-057B,2026-07-06T08:09:09.362880,15.33453156,.00016809,97.2850,313.8413,110.7352,249.4071,0,U,68295,999,1684,.17363053E-2,.56415E-3,0
STARLINK-37142,2026-057C,2026-07-06T20:21:18.580608,15.33470046,.0001258,97.2844,314.3782,87.9899,272.1488,0,U,68296,999,1692,.87495E-3,.283E-3,0
STARLINK-37115,2026-057D,2026-07-06T07:18:15.485760,15.33424324,.00013246,97.2850,313.7418,98.8943,261.2450,0,U,68297,999,1683,.90489238E-3,.29233E-3,0
STARLINK-36355,2026-057E,2026-07-06T08:48:17.978400,15.33439847,.00020061,97.2859,313.8035,106.0625,254.0839,0,U,68298,999,1684,.54045235E-3,.17411E-3,0
STARLINK-37118,2026-057F,2026-07-06T07:22:10.254432,15.33425696,.00013414,97.2856,313.7349,84.7611,275.3785,0,U,68299,999,1683,.8972196E-3,.28984E-3,0
STARLINK-36875,2026-057G,2026-07-06T10:14:26.569824,15.33449060,.0001158,97.2856,313.8808,69.8012,290.3355,0,U,68300,999,1685,.10677E-2,.34556E-3,0
STARLINK-37099,2026-057H,2026-07-06T07:10:25.768704,15.33452722,.00014047,97.2866,313.7492,83.5272,276.6131,0,U,68301,999,1683,.20443637E-2,.66525E-3,0
STARLINK-37007,2026-057J,2026-07-06T08:24:49.182336,15.33443406,.00013588,97.2855,313.8292,43.2532,316.8818,0,U,68302,999,1684,.13282767E-2,.4305E-3,0
STARLINK-36300,2026-057K,2026-07-06T08:20:54.333312,15.33443168,.00012149,97.2847,313.8346,25.4116,334.7186,0,U,68303,999,1684,.13761775E-2,.44614E-3,0
STARLINK-36849,2026-057L,2026-07-06T07:26:05.114688,15.33441701,.00012224,97.2856,313.7315,74.3327,285.8050,0,U,68304,999,1683,.12341246E-2,.39974E-3,0
STARLINK-36277,2026-057M,2026-07-06T20:07:26.311008,15.33463896,.000152,97.2846,313.3210,96.2140,263.9275,0,U,68305,999,1685,.83548E-3,.2701E-3,0
STARLINK-36307,2026-057N,2026-07-06T08:28:42.491712,15.33509624,.00016364,97.2839,313.8219,90.5523,269.5907,0,U,68306,999,1684,.15085295E-2,.49043E-3,0
STARLINK-36264,2026-057P,2026-07-06T20:29:08.192256,15.33452908,.0000281,97.2856,314.3720,112.2630,247.8643,0,U,68307,999,1692,.70223E-3,.22669E-3,0
STARLINK-37138,2026-057Q,2026-07-06T08:33:19.731168,15.37007504,.00006479,97.2846,313.8188,355.6215,4.5024,0,U,68308,999,1684,.20939802E-2,.76392E-3,0
STARLINK-37149,2026-057R,2026-07-06T08:01:17.656896,15.33431879,.00026055,97.2841,313.8510,106.1389,254.0141,0,U,68309,999,1684,.7087417E-3,.22867E-3,0
STARLINK-37148,2026-057S,2026-07-06T20:13:27.736032,15.33458755,.0000775,97.2877,314.3871,53.3016,306.8298,0,U,68310,999,1692,.60048E-3,.19369E-3,0
STARLINK-37140,2026-057T,2026-07-06T08:36:33.660288,15.33446388,.00008149,97.2860,313.8215,72.2678,287.8654,0,U,68311,999,1684,.13183722E-2,.4273E-3,0
STARLINK-36854,2026-057U,2026-07-06T14:28:55.932960,15.33460414,.0001332,97.2844,314.1007,114.3562,245.7819,0,U,68312,999,1688,.98789E-3,.31969E-3,0
STARLINK-36815,2026-057V,2026-07-06T20:09:34.392096,15.33452743,.0001017,97.2858,314.3867,85.9025,274.2334,0,U,68313,999,1692,.74889E-3,.24185E-3,0
STARLINK-37155,2026-057W,2026-07-06T08:16:59.470464,15.33457405,.00020151,97.2837,313.8388,102.8484,257.2984,0,U,68314,999,1684,.18818665E-2,.61198E-3,0
STARLINK-37150,2026-057X,2026-07-06T07:45:39.689856,15.33445301,.00012795,97.2857,313.8634,75.4575,284.6810,0,U,68315,999,1684,.13692501E-2,.4439E-3,0
STARLINK-37154,2026-057Y,2026-07-06T07:30:00.064800,15.33440128,.00012207,97.2853,313.7262,72.6259,287.5117,0,U,68316,999,1683,.12110436E-2,.39219E-3,0
STARLINK-37139,2026-057Z,2026-07-06T08:32:38.844096,15.33429667,.0001619,97.2855,313.8234,87.5736,272.5692,0,U,68317,999,1684,.81651727E-3,.26365E-3,0
STARLINK-37113,2026-057AA,2026-07-06T07:33:54.232992,15.33427165,.00007891,97.2861,313.7246,76.7206,283.4124,0,U,68318,999,1683,.60088873E-3,.19363E-3,0
PROGRESS-MS 33,2026-058A,2026-07-06T11:25:32.035872,15.48920216,.0006688,51.6304,204.6205,262.9565,97.0662,0,U,68319,999,66295,.11937E-3,.6115E-4,0
STARLINK-36987,2026-059A,2026-07-06T04:43:22.046880,15.30165293,.00014015,53.1579,157.5222,59.7448,300.3691,0,U,68321,999,1632,.39894318E-3,.11462E-3,0
STARLINK-37088,2026-059B,2026-07-06T07:41:07.325952,15.34364607,.00012372,53.1567,151.8885,108.2635,251.8503,0,U,68322,999,1641,.19633364E-3,.6255E-4,0
