STARLINK-37151          
1 68290U 26055AE  26187.24334636  .00013191  00000+0  40167-3 0  9993
2 68290  53.1575 126.3547 0001254 115.5417 244.5715 15.34335271 18110
STRIX-6                 
1 68291U 26056A   26187.37742123  .00003033  00000+0  25949-3 0  9998
2 68291  50.2819 259.0748 0016553 317.4088  42.5577 15.00301937 16151
STARLINK-37107          
1 68294U 26057A   26187.66324944  .00021391  00000+0  66363-3 0  9993
2 68294  97.2861 314.1693 0002036  85.8863 274.2612 15.33415084 16892
STARLINK-37147          
1 68295U 26057B   26187.33969170  .00056415  00000+0  17363-2 0  9994
2 68295  97.2850 313.8413 0001680 110.7352 249.4071 15.33453156 16842
STARLINK-37142          
1 68296U 26057C   26187.84813172  .00028300  00000+0  87495-3 0  9997
2 68296  97.2844 314.3782 0001258  87.9899 272.1488 15.33470046 16924
STARLINK-37115          
1 68297U 26057D   26187.30434590  .00029233  00000+0  90489-3 0  9995
2 68297  97.2850 313.7418 0001324  98.8943 261.2450 15.33424324 16832
STARLINK-36355          
1 68298U 26057E   26187.36687475  .00017411  00000+0  54045-3 0  9997
2 68298  97.2859 313.8035 0002006 106.0625 254.0839 15.33439847 16843
STARLINK-37118          
1 68299U 26057F   26187.30706313  .00028984  00000+0  89722-3 0  9992
2 68299  97.2856 313.7349 0001341  84.7611 275.3785 15.33425696 16838
STARLINK-36875          
1 68300U 26057G   26187.42669641  .00034556  00000+0  10677-2 0  9994
2 68300  97.2856 313.8808 0001158  69.8012 290.3355 15.33449060 16850
STARLINK-37099          
1 68301U 26057H   26187.29890936  .00066525  00000+0  20444-2 0  9997
2 68301  97.2866 313.7492 0001404  83.5272 276.6131 15.33452722 16831
STARLINK-37007          
1 68302U 26057J   26187.35056924  .00043050  00000+0  13283-2 0  9997
2 68302  97.2855 313.8292 0001358  43.2532 316.8818 15.33443406 16848
STARLINK-36300          
1 68303U 26057K   26187.34785108  .00044614  00000+0  13762-2 0  9999
2 68303  97.2847 313.8346 0001214  25.4116 334.7186 15.33443168 16843
STARLINK-36849          
1 68304U 26057L   26187.30978142  .00039974  00000+0  12341-2 0  9993
2 68304  97.2856 313.7315 0001222  74.3327 285.8050 15.33441701 16831
STARLINK-36277          
1 68305U 26057M   26187.83849897  .00027010  00000+0  83548-3 0  9992
2 68305  97.2846 313.3210 0001520  96.2140 263.9275 15.33463896 16855
STARLINK-36307          
1 68306U 26057N   26187.35326958  .00049043  00000+0  15085-2 0  9998
2 68306  97.2839 313.8219 0001636  90.5523 269.5907 15.33509624 16845
STARLINK-36264          
1 68307U 26057P   26187.85356704  .00022669  00000+0  70223-3 0  9997
2 68307  97.2856 314.3720 0000281 112.2630 247.8643 15.33452908 16921
STARLINK-37138          
1 68308U 26057Q   26187.35647837  .00076392  00000+0  20940-2 0  9995
2 68308  97.2846 313.8188 0000647 355.6215   4.5024 15.37007504 16845
STARLINK-37149          
1 68309U 26057R   26187.33423214  .00022867  00000+0  70874-3 0  9995
2 68309  97.2841 313.8510 0002605 106.1389 254.0141 15.33431879 16841
STARLINK-37148          
1 68310U 26057S   26187.84268213  .00019369  00000+0  60048-3 0  9994
2 68310  97.2877 314.3871 0000775  53.3016 306.8298 15.33458755 16924
STARLINK-37140          
1 68311U 26057T   26187.35872292  .00042730  00000+0  13184-2 0  9995
2 68311  97.2860 313.8215 0000814  72.2678 287.8654 15.33446388 16845
STARLINK-36854          
1 68312U 26057U   26187.60342515  .00031969  00000+0  98789-3 0  9991
2 68312  97.2844 314.1007 0001332 114.3562 245.7819 15.33460414 16883
STARLINK-36815          
1 68313U 26057V   26187.83998139  .00024185  00000+0  74889-3 0  9993
2 68313  97.2858 314.3867 0001017  85.9025 274.2334 15.33452743 16922
STARLINK-37155          
1 68314U 26057W   26187.34513276  .00061198  00000+0  18819-2 0  9990
2 68314  97.2837 313.8388 0002015 102.8484 257.2984 15.33457405 16842
STARLINK-37150          
1 68315U 26057X   26187.32337604  .00044390  00000+0  13693-2 0  9998
2 68315  97.2857 313.8634 0001279  75.4575 284.6810 15.33445301 16840
STARLINK-37154          
1 68316U 26057Y   26187.31250075  .00039219  00000+0  12110-2 0  9991
2 68316  97.2853 313.7262 0001220  72.6259 287.5117 15.33440128 16830
STARLINK-37139          
1 68317U 26057Z   26187.35600514  .00026365  00000+0  81652-3 0  9999
2 68317  97.2855 313.8234 0001619  87.5736 272.5692 15.33429667 16848
STARLINK-37113          
1 68318U 26057AA  26187.31521103  .00019363  00000+0  60089-3 0  9993
2 68318  97.2861 313.7246 0000789  76.7206 283.4124 15.33427165 16838
PROGRESS-MS 33          
1 68319U 26058A   26187.47606523  .00006115  00000+0  11937-3 0  9991
2 68319  51.6304 204.6205 0006688 262.9565  97.0662 15.48920216662956
STARLINK-36987          
1 68321U 26059A   26187.19678295  .00011462  00000+0  39894-3 0  9992
2 68321  53.1579 157.5222 0001401  59.7448 300.3691 15.30165293 16328
STARLINK-37088          
1 68322U 26059B   26187.32022368  .00006255  00000+0  19633-3 0  9995
2 68322  53.1567 151.8885 0001237 108.2635 251.8503 15.34364607 16419
